0 SL-19 DEB
1 23483U 94085F   13280.58953832 -.00000025  00000-0  49464-3 0  5953
2 23483 064.7271 308.9403 0201899 229.9935 214.0746 11.22853169770291
0 SL-19 DEB
1 23483U 94085F   13283.07754645 -.00000026  00000-0  47274-3 0  5960
2 23483 064.7275 304.9423 0201896 229.5794 191.2720 11.22853312770578
0 SL-19 DEB
1 23483U 94085F   13287.53630943 -.00000065  00000-0 -65928-3 0  5981
2 23483 064.7270 297.7744 0201781 228.8631 214.7670 11.22853811771078
0 SL-19 DEB
1 23483U 94085F   13289.58636762 -.00000082  00000-0 -11711-2 0  5993
2 23483 064.7271 294.4786 0201696 228.5443 221.6335 11.22853894771304
0 SL-19 DEB
1 23483U 94085F   13292.16847545 -.00000026  00000-0  49108-3 0  6006
2 23483 064.7273 290.3276 0201642 228.1238 219.2070 11.22853287771590
0 SL-19 DEB
1 23483U 94085F   13294.57515175 -.00000040  00000-0  75176-4 0  6016
2 23483 064.7274 286.4590 0201620 227.7276 227.6364 11.22853472771864
